[{"OBJECT_NAME":"STARLINK-2559","OBJECT_ID":"2021-036Y","EPOCH":"2026-03-09T07:39:05.886432","MEAN_MOTION":15.30196017,"ECCENTRICITY":0.0001598,"INCLINATION":53.1633,"RA_OF_ASC_NODE":77.1558,"ARG_OF_PERICENTER":106.0928,"MEAN_ANOMALY":254.0248,"EPHEMERIS_TYPE":0,"CLASSIFICATION_TYPE":"U","NORAD_CAT_ID":48298,"ELEMENT_SET_NO":999,"REV_AT_EPOCH":26835,"BSTAR":4.091783e-6,"MEAN_MOTION_DOT":-2.38e-6,"MEAN_MOTION_DDOT":0},{"OBJECT_NAME":"DONGPO 10","OBJECT_ID":"2022-167H","EPOCH":"2026-03-09T22:44:56.137344","MEAN_MOTION":15.322785,"ECCENTRICITY":0.00061655,"INCLINATION":97.685,"RA_OF_ASC_NODE":235.0962,"ARG_OF_PERICENTER":106.9526,"MEAN_ANOMALY":253.2392,"EPHEMERIS_TYPE":0,"CLASSIFICATION_TYPE":"U","NORAD_CAT_ID":54689,"ELEMENT_SET_NO":999,"REV_AT_EPOCH":18015,"BSTAR":0.00049390523,"MEAN_MOTION_DOT":0.00015333,"MEAN_MOTION_DDOT":0}]
